[{"OBJECT_NAME":"STARLINK-6044","OBJECT_ID":"2023-064AH","EPOCH":"2026-03-09T13:25:56.817696","MEAN_MOTION":14.98326461,"ECCENTRICITY":0.0003376,"INCLINATION":69.9997,"RA_OF_ASC_NODE":124.6333,"ARG_OF_PERICENTER":269.6306,"MEAN_ANOMALY":90.4466,"EPHEMERIS_TYPE":0,"CLASSIFICATION_TYPE":"U","NORAD_CAT_ID":56479,"ELEMENT_SET_NO":999,"REV_AT_EPOCH":15572,"BSTAR":-5.2639e-5,"MEAN_MOTION_DOT":-7.21e-6,"MEAN_MOTION_DDOT":0},{"OBJECT_NAME":"CZ-6A DEB","OBJECT_ID":"2024-140PK","EPOCH":"2026-03-09T14:50:49.125696","MEAN_MOTION":14.82233524,"ECCENTRICITY":0.0082184,"INCLINATION":89.0613,"RA_OF_ASC_NODE":285.2407,"ARG_OF_PERICENTER":189.4806,"MEAN_ANOMALY":170.4873,"EPHEMERIS_TYPE":0,"CLASSIFICATION_TYPE":"U","NORAD_CAT_ID":61117,"ELEMENT_SET_NO":999,"REV_AT_EPOCH":8234,"BSTAR":0.0019702,"MEAN_MOTION_DOT":0.0001671,"MEAN_MOTION_DDOT":0}]
